{"type": "FeatureCollection", "features": [ {"type": "Feature", "properties": {"norad_id": 43437, "name": "SENTINEL-3B", "group": "resource", "lat": -46.832321745094006, "lon": -128.31424060632574, "alt_km": 810.2478951062449, "timestamp": "2025-12-21T22:41:41.105242+00:00", "meta": {"OBJECT_NAME": "SENTINEL-3B", "OBJECT_ID": "2018-039A", "EPOCH": "2025-12-21T11:32:00.042720", "MEAN_MOTION": 14.26737191, "ECCENTRICITY": 0.00016222, "INCLINATION": 98.6256, "RA_OF_ASC_NODE": 60.5402, "ARG_OF_PERICENTER": 93.0561, "MEAN_ANOMALY": 267.0805, "EPHEMERIS_TYPE": 0, "CLASSIFICATION_TYPE": "U", "NORAD_CAT_ID": 43437, "ELEMENT_SET_NO": 999, "REV_AT_EPOCH": 39878, "BSTAR": 6.8744166e-05, "MEAN_MOTION_DOT": 1.23e-06, "MEAN_MOTION_DDOT": 0}, "tle": {"line1": "1 43437U 18039A   25355.48055605  .00000123  00000+0  68744-4 0  9993", "line2": "2 43437  98.6256  60.5402 0001622  93.0561 267.0805 14.26737191398785"}}, "geometry": {"type": "Point", "coordinates": [-128.31424060632574, -46.832321745094006]}}, {"type": "Feature", "properties": {"norad_id": 43461, "name": "GAOFEN-5 01", "group": "resource", "lat": -69.3461688602445, "lon": 115.89488250549861, "alt_km": 698.762709818001, "timestamp": "2025-12-21T22:41:41.105252+00:00", "meta": {"OBJECT_NAME": "GAOFEN-5 01", "OBJECT_ID": "2018-043A", "EPOCH": "2025-12-21T11:40:57.439488", "MEAN_MOTION": 14.60418612, "ECCENTRICITY": 5.099e-05, "INCLINATION": 98.4339, "RA_OF_ASC_NODE": 318.6072, "ARG_OF_PERICENTER": 280.4248, "MEAN_ANOMALY": 79.6894, "EPHEMERIS_TYPE": 0, "CLASSIFICATION_TYPE": "U", "NORAD_CAT_ID": 43461, "ELEMENT_SET_NO": 999, "REV_AT_EPOCH": 40575, "BSTAR": 8.5207627e-05, "MEAN_MOTION_DOT": 3.64e-06, "MEAN_MOTION_DDOT": 0}, "tle": {"line1": "1 43461U 18043A   25355.48677592  .00000364  00000+0  85208-4 0  9991", "line2": "2 43461  98.4339 318.6072 0000509 280.4248  79.6894 14.60418612405752"}}, "geometry": {"type": "Point", "coordinates": [115.89488250549861, -69.3461688602445]}}, {"type": "Feature", "properties": {"norad_id": 43484, "name": "GAOFEN-6", "group": "resource", "lat": 59.882262370585906, "lon": 46.230794250844006, "alt_km": 626.1667278573432, "timestamp": "2025-12-21T22:41:41.105262+00:00", "meta": {"OBJECT_NAME": "GAOFEN-6", "OBJECT_ID": "2018-048A", "EPOCH": "2025-12-21T14:17:20.875200", "MEAN_MOTION": 14.7657996, "ECCENTRICITY": 0.00128003, "INCLINATION": 97.8026, "RA_OF_ASC_NODE": 59.5652, "ARG_OF_PERICENTER": 37.4874, "MEAN_ANOMALY": 322.7227, "EPHEMERIS_TYPE": 0, "CLASSIFICATION_TYPE": "U", "NORAD_CAT_ID": 43484, "ELEMENT_SET_NO": 999, "REV_AT_EPOCH": 40718, "BSTAR": 7.0383407e-05, "MEAN_MOTION_DOT": 4.42e-06, "MEAN_MOTION_DDOT": 0}, "tle": {"line1": "1 43484U 18048A   25355.59538050  .00000442  00000+0  70383-4 0  9993", "line2": "2 43484  97.8026  59.5652 0012800  37.4874 322.7227 14.76579960407182"}}, "geometry": {"type": "Point", "coordinates": [46.230794250844006, 59.882262370585906]}}, {"type": "Feature", "properties": {"norad_id": 43585, "name": "GAOFEN-11 01", "group": "resource", "lat": 63.924959444190904, "lon": -106.32017352858281, "alt_km": 414.4362565772617, "timestamp": "2025-12-21T22:41:41.105273+00:00", "meta": {"OBJECT_NAME": "GAOFEN-11 01", "OBJECT_ID": "2018-063A", "EPOCH": "2025-12-21T14:26:59.055360", "MEAN_MOTION": 15.49452725, "ECCENTRICITY": 0.00038723, "INCLINATION": 97.1552, "RA_OF_ASC_NODE": 58.4638, "ARG_OF_PERICENTER": 268.5706, "MEAN_ANOMALY": 91.5102, "EPHEMERIS_TYPE": 0, "CLASSIFICATION_TYPE": "U", "NORAD_CAT_ID": 43585, "ELEMENT_SET_NO": 999, "REV_AT_EPOCH": 41279, "BSTAR": 0.00024629318, "MEAN_MOTION_DOT": 0.00013457, "MEAN_MOTION_DDOT": 0}, "tle": {"line1": "1 43585U 18063A   25355.60207240  .00013457  00000+0  24629-3 0  9999", "line2": "2 43585  97.1552  58.4638 0003872 268.5706  91.5102 15.49452725412799"}}, "geometry": {"type": "Point", "coordinates": [-106.32017352858281, 63.924959444190904]}}, {"type": "Feature", "properties": {"norad_id": 43613, "name": "ICESAT-2", "group": "resource", "lat": -51.52562837295246, "lon": 60.69580201911753, "alt_km": 488.8962445940133, "timestamp": "2025-12-21T22:41:41.105283+00:00", "meta": {"OBJECT_NAME": "ICESAT-2", "OBJECT_ID": "2018-070A", "EPOCH": "2025-12-21T12:15:21.469824", "MEAN_MOTION": 15.2825061, "ECCENTRICITY": 0.00029505, "INCLINATION": 92.0044, "RA_OF_ASC_NODE": 243.1043, "ARG_OF_PERICENTER": 120.3372, "MEAN_ANOMALY": 239.8169, "EPHEMERIS_TYPE": 0, "CLASSIFICATION_TYPE": "U", "NORAD_CAT_ID": 43613, "ELEMENT_SET_NO": 999, "REV_AT_EPOCH": 40532, "BSTAR": 0.00035145253, "MEAN_MOTION_DOT": 9.672e-05, "MEAN_MOTION_DDOT": 0}, "tle": {"line1": "1 43613U 18070A   25355.51066516  .00009672  00000+0  35145-3 0  9997", "line2": "2 43613  92.0044 243.1043 0002950 120.3372 239.8169 15.28250610405321"}}, "geometry": {"type": "Point", "coordinates": [60.69580201911753, -51.52562837295246]}}, {"type": "Feature", "properties": {"norad_id": 43719, "name": "HYSIS", "group": "resource", "lat": 14.48753397138151, "lon": -119.03624656674359, "alt_km": 634.7925226898988, "timestamp": "2025-12-21T22:41:41.105321+00:00", "meta": {"OBJECT_NAME": "HYSIS", "OBJECT_ID": "2018-096A", "EPOCH": "2025-12-21T13:49:46.353216", "MEAN_MOTION": 14.78667028, "ECCENTRICITY": 0.00010226, "INCLINATION": 98.0092, "RA_OF_ASC_NODE": 58.5113, "ARG_OF_PERICENTER": 50.7247, "MEAN_ANOMALY": 309.4054, "EPHEMERIS_TYPE": 0, "CLASSIFICATION_TYPE": "U", "NORAD_CAT_ID": 43719, "ELEMENT_SET_NO": 999, "REV_AT_EPOCH": 38117, "BSTAR": 0.00011397549, "MEAN_MOTION_DOT": 7.83e-06, "MEAN_MOTION_DDOT": 0}, "tle": {"line1": "1 43719U 18096A   25355.57623094  .00000783  00000+0  11398-3 0  9996", "line2": "2 43719  98.0092  58.5113 0001022  50.7247 309.4054 14.78667028381171"}}, "geometry": {"type": "Point", "coordinates": [-119.03624656674359, 14.48753397138151]}}, {"type": "Feature", "properties": {"norad_id": 43783, "name": "KAZSTSAT", "group": "resource", "lat": 6.04326130787494, "lon": 29.940120506606032, "alt_km": 570.1125800105283, "timestamp": "2025-12-21T22:41:41.105342+00:00", "meta": {"OBJECT_NAME": "KAZSTSAT", "OBJECT_ID": "2018-099AB", "EPOCH": "2025-12-21T01:50:44.888352", "MEAN_MOTION": 14.99364891, "ECCENTRICITY": 0.00060238, "INCLINATION": 97.4527, "RA_OF_ASC_NODE": 29.903, "ARG_OF_PERICENTER": 292.687, "MEAN_ANOMALY": 67.3717, "EPHEMERIS_TYPE": 0, "CLASSIFICATION_TYPE": "U", "NORAD_CAT_ID": 43783, "ELEMENT_SET_NO": 999, "REV_AT_EPOCH": 38461, "BSTAR": 1.8043656e-05, "MEAN_MOTION_DOT": 1.65e-06, "MEAN_MOTION_DDOT": 0}, "tle": {"line1": "1 43783U 18099AB  25355.07690843  .00000165  00000+0  18044-4 0  9991", "line2": "2 43783  97.4527  29.9030 0006023 292.6870  67.3717 14.99364891384616"}}, "geometry": {"type": "Point", "coordinates": [29.940120506606032, 6.04326130787494]}}, {"type": "Feature", "properties": {"norad_id": 43831, "name": "SAUDISAT 5A", "group": "resource", "lat": -30.656844805847065, "lon": -128.4191666819391, "alt_km": 502.02884435911983, "timestamp": "2025-12-21T22:41:41.105354+00:00", "meta": {"OBJECT_NAME": "SAUDISAT 5A", "OBJECT_ID": "2018-102A", "EPOCH": "2025-12-21T15:28:41.170080", "MEAN_MOTION": 15.25756888, "ECCENTRICITY": 0.00113212, "INCLINATION": 97.334, "RA_OF_ASC_NODE": 55.6643, "ARG_OF_PERICENTER": 48.7445, "MEAN_ANOMALY": 311.4767, "EPHEMERIS_TYPE": 0, "CLASSIFICATION_TYPE": "U", "NORAD_CAT_ID": 43831, "ELEMENT_SET_NO": 999, "REV_AT_EPOCH": 38858, "BSTAR": 0.0001951781, "MEAN_MOTION_DOT": 4.918e-05, "MEAN_MOTION_DDOT": 0}, "tle": {"line1": "1 43831U 18102A   25355.64492095  .00004918  00000+0  19518-3 0  9998", "line2": "2 43831  97.3340  55.6643 0011321  48.7445 311.4767 15.25756888388582"}}, "geometry": {"type": "Point", "coordinates": [-128.4191666819391, -30.656844805847065]}}, {"type": "Feature", "properties": {"norad_id": 43833, "name": "SAUDISAT 5B", "group": "resource", "lat": -81.38091492235331, "lon": 117.01581228605991, "alt_km": 500.6963844395468, "timestamp": "2025-12-21T22:41:41.105365+00:00", "meta": {"OBJECT_NAME": "SAUDISAT 5B", "OBJECT_ID": "2018-102C", "EPOCH": "2025-12-21T15:12:02.685888", "MEAN_MOTION": 15.26105058, "ECCENTRICITY": 0.00120492, "INCLINATION": 97.3435, "RA_OF_ASC_NODE": 58.4075, "ARG_OF_PERICENTER": 50.824, "MEAN_ANOMALY": 309.4067, "EPHEMERIS_TYPE": 0, "CLASSIFICATION_TYPE": "U", "NORAD_CAT_ID": 43833, "ELEMENT_SET_NO": 999, "REV_AT_EPOCH": 38869, "BSTAR": 0.00017859638, "MEAN_MOTION_DOT": 4.543e-05, "MEAN_MOTION_DDOT": 0}, "tle": {"line1": "1 43833U 18102C   25355.63336442  .00004543  00000+0  17860-3 0  9994", "line2": "2 43833  97.3435  58.4075 0012049  50.8240 309.4067 15.26105058388694"}}, "geometry": {"type": "Point", "coordinates": [117.01581228605991, -81.38091492235331]}}, {"type": "Feature", "properties": {"norad_id": 44622, "name": "GAOFEN-10R", "group": "resource", "lat": -46.41554239646231, "lon": 114.95958358356727, "alt_km": 631.546035890945, "timestamp": "2025-12-21T22:41:41.105376+00:00", "meta": {"OBJECT_NAME": "GAOFEN-10R", "OBJECT_ID": "2019-066A", "EPOCH": "2025-12-21T15:11:46.466880", "MEAN_MOTION": 14.8281974, "ECCENTRICITY": 0.00072723, "INCLINATION": 98.029, "RA_OF_ASC_NODE": 303.1746, "ARG_OF_PERICENTER": 15.9542, "MEAN_ANOMALY": 344.1899, "EPHEMERIS_TYPE": 0, "CLASSIFICATION_TYPE": "U", "NORAD_CAT_ID": 44622, "ELEMENT_SET_NO": 999, "REV_AT_EPOCH": 33606, "BSTAR": 0.00016089624, "MEAN_MOTION_DOT": 1.248e-05, "MEAN_MOTION_DDOT": 0}, "tle": {"line1": "1 44622U 19066A   25355.63317670  .00001248  00000+0  16090-3 0  9996", "line2": "2 44622  98.0290 303.1746 0007272  15.9542 344.1899 14.82819740336066"}}, "geometry": {"type": "Point", "coordinates": [114.95958358356727, -46.41554239646231]}}]}